{"type": "FeatureCollection", "features": [ {"type": "Feature", "properties": {"norad_id": 35038, "name": "COSMOS 2251 DEB", "group": "cosmos-2251-debris", "lat": -72.08682396842472, "lon": -75.69303395591645, "alt_km": 861.0293670439314, "timestamp": "2025-12-12T18:57:44.525047+00:00", "meta": {"OBJECT_NAME": "COSMOS 2251 DEB", "OBJECT_ID": "1993-036AHB", "EPOCH": "2025-12-09T21:12:51.178752", "MEAN_MOTION": 14.25117767, "ECCENTRICITY": 0.01138214, "INCLINATION": 74.1071, "RA_OF_ASC_NODE": 47.7141, "ARG_OF_PERICENTER": 32.4196, "MEAN_ANOMALY": 86.2003, "EPHEMERIS_TYPE": 0, "CLASSIFICATION_TYPE": "U", "NORAD_CAT_ID": 35038, "ELEMENT_SET_NO": 999, "REV_AT_EPOCH": 85528, "BSTAR": 0.0019860831, "MEAN_MOTION_DOT": 4.964e-05, "MEAN_MOTION_DDOT": 0}, "tle": {"line1": "1 35038U 93036AHB 25343.88392568  .00004964  00000+0  19861-2 0  9995", "line2": "2 35038  74.1071  47.7141 0113821  32.4196  86.2003 14.25117767855284"}}, "geometry": {"type": "Point", "coordinates": [-75.69303395591645, -72.08682396842472]}}, {"type": "Feature", "properties": {"norad_id": 35043, "name": "COSMOS 2251 DEB", "group": "cosmos-2251-debris", "lat": 63.74258664019137, "lon": -170.22278459042641, "alt_km": 686.8009381753182, "timestamp": "2025-12-12T18:57:44.525057+00:00", "meta": {"OBJECT_NAME": "COSMOS 2251 DEB", "OBJECT_ID": "1993-036AHG", "EPOCH": "2025-12-12T03:49:22.131552", "MEAN_MOTION": 14.769144, "ECCENTRICITY": 0.0096604, "INCLINATION": 73.951, "RA_OF_ASC_NODE": 46.7198, "ARG_OF_PERICENTER": 256.1813, "MEAN_ANOMALY": 102.8598, "EPHEMERIS_TYPE": 0, "CLASSIFICATION_TYPE": "U", "NORAD_CAT_ID": 35043, "ELEMENT_SET_NO": 999, "REV_AT_EPOCH": 67410, "BSTAR": 0.0047770727, "MEAN_MOTION_DOT": 0.00036451, "MEAN_MOTION_DDOT": 0}, "tle": {"line1": "1 35043U 93036AHG 25346.15928393  .00036451  00000+0  47771-2 0  9992", "line2": "2 35043  73.9510  46.7198 0096604 256.1813 102.8598 14.76914400674105"}}, "geometry": {"type": "Point", "coordinates": [-170.22278459042641, 63.74258664019137]}}, {"type": "Feature", "properties": {"norad_id": 35045, "name": "COSMOS 2251 DEB", "group": "cosmos-2251-debris", "lat": -68.708884877247, "lon": 4.0358316637065075, "alt_km": 768.1024661549, "timestamp": "2025-12-12T18:57:44.525067+00:00", "meta": {"OBJECT_NAME": "COSMOS 2251 DEB", "OBJECT_ID": "1993-036AHJ", "EPOCH": "2025-12-11T21:01:34.845600", "MEAN_MOTION": 14.00382084, "ECCENTRICITY": 0.0183574, "INCLINATION": 73.7197, "RA_OF_ASC_NODE": 54.2288, "ARG_OF_PERICENTER": 296.3554, "MEAN_ANOMALY": 61.8829, "EPHEMERIS_TYPE": 0, "CLASSIFICATION_TYPE": "U", "NORAD_CAT_ID": 35045, "ELEMENT_SET_NO": 999, "REV_AT_EPOCH": 84631, "BSTAR": 0.00094643, "MEAN_MOTION_DOT": 1.595e-05, "MEAN_MOTION_DDOT": 0}, "tle": {"line1": "1 35045U 93036AHJ 25345.87609775  .00001595  00000+0  94643-3 0  9994", "line2": "2 35045  73.7197  54.2288 0183574 296.3554  61.8829 14.00382084846310"}}, "geometry": {"type": "Point", "coordinates": [4.0358316637065075, -68.708884877247]}}, {"type": "Feature", "properties": {"norad_id": 35060, "name": "COSMOS 2251 DEB", "group": "cosmos-2251-debris", "lat": -17.586268824714516, "lon": 69.44890114177664, "alt_km": 766.1792247696039, "timestamp": "2025-12-12T18:57:44.525077+00:00", "meta": {"OBJECT_NAME": "COSMOS 2251 DEB", "OBJECT_ID": "1993-036AHP", "EPOCH": "2025-11-28T02:37:07.839264", "MEAN_MOTION": 14.41547968, "ECCENTRICITY": 0.00179641, "INCLINATION": 74.0363, "RA_OF_ASC_NODE": 271.4275, "ARG_OF_PERICENTER": 359.5881, "MEAN_ANOMALY": 0.5257, "EPHEMERIS_TYPE": 0, "CLASSIFICATION_TYPE": "U", "NORAD_CAT_ID": 35060, "ELEMENT_SET_NO": 999, "REV_AT_EPOCH": 87031, "BSTAR": 0.0004076845, "MEAN_MOTION_DOT": 1.301e-05, "MEAN_MOTION_DDOT": 0}, "tle": {"line1": "1 35060U 93036AHP 25332.10911851  .00001301  00000+0  40768-3 0  9998", "line2": "2 35060  74.0363 271.4275 0017964 359.5881   0.5257 14.41547968870310"}}, "geometry": {"type": "Point", "coordinates": [69.44890114177664, -17.586268824714516]}}, {"type": "Feature", "properties": {"norad_id": 35061, "name": "COSMOS 2251 DEB", "group": "cosmos-2251-debris", "lat": 73.8959323682037, "lon": 27.86549883298517, "alt_km": 637.048685342952, "timestamp": "2025-12-12T18:57:44.525087+00:00", "meta": {"OBJECT_NAME": "COSMOS 2251 DEB", "OBJECT_ID": "1993-036AHQ", "EPOCH": "2025-12-11T21:18:06.026400", "MEAN_MOTION": 14.67814621, "ECCENTRICITY": 0.0039076, "INCLINATION": 74.046, "RA_OF_ASC_NODE": 307.3691, "ARG_OF_PERICENTER": 58.491, "MEAN_ANOMALY": 302.0067, "EPHEMERIS_TYPE": 0, "CLASSIFICATION_TYPE": "U", "NORAD_CAT_ID": 35061, "ELEMENT_SET_NO": 999, "REV_AT_EPOCH": 88562, "BSTAR": 0.0012324, "MEAN_MOTION_DOT": 7.091e-05, "MEAN_MOTION_DDOT": 0}, "tle": {"line1": "1 35061U 93036AHQ 25345.88756975  .00007091  00000+0  12324-2 0  9990", "line2": "2 35061  74.0460 307.3691 0039076  58.4910 302.0067 14.67814621885626"}}, "geometry": {"type": "Point", "coordinates": [27.86549883298517, 73.8959323682037]}}, {"type": "Feature", "properties": {"norad_id": 35062, "name": "COSMOS 2251 DEB", "group": "cosmos-2251-debris", "lat": 41.02954980644537, "lon": -101.22606947613143, "alt_km": 745.1454867968387, "timestamp": "2025-12-12T18:57:44.525097+00:00", "meta": {"OBJECT_NAME": "COSMOS 2251 DEB", "OBJECT_ID": "1993-036AHR", "EPOCH": "2025-12-10T15:42:45.436320", "MEAN_MOTION": 14.22906612, "ECCENTRICITY": 0.01275957, "INCLINATION": 74.0784, "RA_OF_ASC_NODE": 96.9836, "ARG_OF_PERICENTER": 97.3041, "MEAN_ANOMALY": 264.2628, "EPHEMERIS_TYPE": 0, "CLASSIFICATION_TYPE": "U", "NORAD_CAT_ID": 35062, "ELEMENT_SET_NO": 999, "REV_AT_EPOCH": 85469, "BSTAR": 0.0028656551, "MEAN_MOTION_DOT": 6.986e-05, "MEAN_MOTION_DDOT": 0}, "tle": {"line1": "1 35062U 93036AHR 25344.65469255  .00006986  00000+0  28657-2 0  9995", "line2": "2 35062  74.0784  96.9836 0127595  97.3041 264.2628 14.22906612854697"}}, "geometry": {"type": "Point", "coordinates": [-101.22606947613143, 41.02954980644537]}}, {"type": "Feature", "properties": {"norad_id": 35065, "name": "COSMOS 2251 DEB", "group": "cosmos-2251-debris", "lat": -6.770967718965008, "lon": 16.19484482541149, "alt_km": 752.4782135232754, "timestamp": "2025-12-12T18:57:44.525107+00:00", "meta": {"OBJECT_NAME": "COSMOS 2251 DEB", "OBJECT_ID": "1993-036AHU", "EPOCH": "2025-12-08T21:05:49.871616", "MEAN_MOTION": 14.4570853, "ECCENTRICITY": 0.0019714, "INCLINATION": 74.0196, "RA_OF_ASC_NODE": 201.5431, "ARG_OF_PERICENTER": 327.1177, "MEAN_ANOMALY": 32.8753, "EPHEMERIS_TYPE": 0, "CLASSIFICATION_TYPE": "U", "NORAD_CAT_ID": 35065, "ELEMENT_SET_NO": 999, "REV_AT_EPOCH": 68295, "BSTAR": 0.00050947, "MEAN_MOTION_DOT": 1.782e-05, "MEAN_MOTION_DDOT": 0}, "tle": {"line1": "1 35065U 93036AHU 25342.87904944  .00001782  00000+0  50947-3 0  9996", "line2": "2 35065  74.0196 201.5431 0019714 327.1177  32.8753 14.45708530682959"}}, "geometry": {"type": "Point", "coordinates": [16.19484482541149, -6.770967718965008]}}, {"type": "Feature", "properties": {"norad_id": 35071, "name": "COSMOS 2251 DEB", "group": "cosmos-2251-debris", "lat": 53.599145609513435, "lon": -163.653113553488, "alt_km": 504.61922518736264, "timestamp": "2025-12-12T18:57:44.525116+00:00", "meta": {"OBJECT_NAME": "COSMOS 2251 DEB", "OBJECT_ID": "1993-036AJA", "EPOCH": "2025-12-11T20:21:16.221024", "MEAN_MOTION": 15.03424609, "ECCENTRICITY": 0.00684253, "INCLINATION": 73.9323, "RA_OF_ASC_NODE": 175.2711, "ARG_OF_PERICENTER": 72.0374, "MEAN_ANOMALY": 288.8257, "EPHEMERIS_TYPE": 0, "CLASSIFICATION_TYPE": "U", "NORAD_CAT_ID": 35071, "ELEMENT_SET_NO": 999, "REV_AT_EPOCH": 67523, "BSTAR": 0.00096830833, "MEAN_MOTION_DOT": 0.00013858, "MEAN_MOTION_DDOT": 0}, "tle": {"line1": "1 35071U 93036AJA 25345.84810441  .00013858  00000+0  96831-3 0  9990", "line2": "2 35071  73.9323 175.2711 0068425  72.0374 288.8257 15.03424609675234"}}, "geometry": {"type": "Point", "coordinates": [-163.653113553488, 53.599145609513435]}}, {"type": "Feature", "properties": {"norad_id": 35073, "name": "COSMOS 2251 DEB", "group": "cosmos-2251-debris", "lat": 15.1887791171857, "lon": 146.00921680420393, "alt_km": 565.8099237586912, "timestamp": "2025-12-12T18:57:44.525126+00:00", "meta": {"OBJECT_NAME": "COSMOS 2251 DEB", "OBJECT_ID": "1993-036AJC", "EPOCH": "2025-12-10T16:37:50.806560", "MEAN_MOTION": 15.00404336, "ECCENTRICITY": 0.00107016, "INCLINATION": 74.0016, "RA_OF_ASC_NODE": 334.7492, "ARG_OF_PERICENTER": 76.0723, "MEAN_ANOMALY": 284.1653, "EPHEMERIS_TYPE": 0, "CLASSIFICATION_TYPE": "U", "NORAD_CAT_ID": 35073, "ELEMENT_SET_NO": 999, "REV_AT_EPOCH": 67448, "BSTAR": 0.0043502619, "MEAN_MOTION_DOT": 0.00055148, "MEAN_MOTION_DDOT": 0}, "tle": {"line1": "1 35073U 93036AJC 25344.69294915  .00055148  00000+0  43503-2 0  9991", "line2": "2 35073  74.0016 334.7492 0010701  76.0723 284.1653 15.00404336674488"}}, "geometry": {"type": "Point", "coordinates": [146.00921680420393, 15.1887791171857]}}, {"type": "Feature", "properties": {"norad_id": 35284, "name": "COSMOS 2251 DEB", "group": "cosmos-2251-debris", "lat": -56.29379528652085, "lon": 109.7189589295828, "alt_km": 773.0231397340549, "timestamp": "2025-12-12T18:57:44.525136+00:00", "meta": {"OBJECT_NAME": "COSMOS 2251 DEB", "OBJECT_ID": "1993-036AJN", "EPOCH": "2025-12-11T12:36:30.542400", "MEAN_MOTION": 14.38316207, "ECCENTRICITY": 0.001676, "INCLINATION": 74.0493, "RA_OF_ASC_NODE": 266.6592, "ARG_OF_PERICENTER": 343.4318, "MEAN_ANOMALY": 190.4692, "EPHEMERIS_TYPE": 0, "CLASSIFICATION_TYPE": "U", "NORAD_CAT_ID": 35284, "ELEMENT_SET_NO": 999, "REV_AT_EPOCH": 65508, "BSTAR": 0.00029322355, "MEAN_MOTION_DOT": 8.68e-06, "MEAN_MOTION_DDOT": 0}, "tle": {"line1": "1 35284U 93036AJN 25345.52535350  .00000868  00000+0  29322-3 0  9992", "line2": "2 35284  74.0493 266.6592 0016760 343.4318 190.4692 14.38316207655083"}}, "geometry": {"type": "Point", "coordinates": [109.7189589295828, -56.29379528652085]}}]}